[{"OBJECT_NAME":"STARLINK-32260","OBJECT_ID":"2024-183P","EPOCH":"2026-03-09T11:26:59.200512","MEAN_MOTION":15.30189376,"ECCENTRICITY":0.000123,"INCLINATION":53.1603,"RA_OF_ASC_NODE":143.154,"ARG_OF_PERICENTER":111.023,"MEAN_ANOMALY":249.0903,"EPHEMERIS_TYPE":0,"CLASSIFICATION_TYPE":"U","NORAD_CAT_ID":61522,"ELEMENT_SET_NO":999,"REV_AT_EPOCH":7962,"BSTAR":2.91165e-7,"MEAN_MOTION_DOT":-3.5e-6,"MEAN_MOTION_DDOT":0},{"OBJECT_NAME":"COSMOS 1975","OBJECT_ID":"1988-093A","EPOCH":"2026-03-09T14:15:08.474112","MEAN_MOTION":15.28069249,"ECCENTRICITY":0.0012117,"INCLINATION":82.5181,"RA_OF_ASC_NODE":117.7814,"ARG_OF_PERICENTER":163.8427,"MEAN_ANOMALY":196.3201,"EPHEMERIS_TYPE":0,"CLASSIFICATION_TYPE":"U","NORAD_CAT_ID":19573,"ELEMENT_SET_NO":999,"REV_AT_EPOCH":1939,"BSTAR":0.0002787,"MEAN_MOTION_DOT":7.676e-5,"MEAN_MOTION_DDOT":0}]
